{
  "type": "FeatureCollection",
  "features": [
    {
      "type": "Feature",
      "properties": {
        "norad_id": 37836,
        "name": "EUTELSAT 16A",
        "group": "eutelsat",
        "lat": 0.02272379810140495,
        "lon": -2.507362606161862,
        "alt_km": 35785.494313362855,
        "timestamp": "2025-12-20T16:47:35.962439+00:00",
        "meta_object_name": "EUTELSAT 16A",
        "meta_object_id": "2011-057A",
        "meta_epoch": "2025-12-20T06:27:32.520960",
        "meta_mean_motion": 1.00269222,
        "meta_eccentricity": 0.0005862,
        "meta_inclination": 0.06,
        "meta_ra_of_asc_node": 337.379,
        "meta_arg_of_pericenter": 292.999,
        "meta_mean_anomaly": 291.6219,
        "meta_ephemeris_type": 0,
        "meta_classification_type": "U",
        "meta_norad_cat_id": 37836,
        "meta_element_set_no": 999,
        "meta_rev_at_epoch": 553,
        "meta_bstar": 0,
        "meta_mean_motion_dot": 1.28e-06,
        "meta_mean_motion_ddot": 0,
        "tle_line1": "1 37836U 11057A   25354.26912640  .00000128  00000+0  00000+0 0  9999",
        "tle_line2": "2 37836   0.0600 337.3790 0005862 292.9990 291.6219  1.00269222  5535"
      },
      "geometry": {
        "type": "Point",
        "coordinates": [
          -2.507362606161862,
          0.02272379810140495
        ]
      }
    },
    {
      "type": "Feature",
      "properties": {
        "norad_id": 38992,
        "name": "EUTELSAT 21B",
        "group": "eutelsat",
        "lat": 0.031909249736668505,
        "lon": 3.058955260103379,
        "alt_km": 35786.928011969365,
        "timestamp": "2025-12-20T16:47:35.962465+00:00",
        "meta_object_name": "EUTELSAT 21B",
        "meta_object_id": "2012-062B",
        "meta_epoch": "2025-12-20T06:29:09.866112",
        "meta_mean_motion": 1.00268974,
        "meta_eccentricity": 0.0003271,
        "meta_inclination": 0.0691,
        "meta_ra_of_asc_node": 339.5799,
        "meta_arg_of_pericenter": 293.0358,
        "meta_mean_anomaly": 295.3874,
        "meta_ephemeris_type": 0,
        "meta_classification_type": "U",
        "meta_norad_cat_id": 38992,
        "meta_element_set_no": 999,
        "meta_rev_at_epoch": 4803,
        "meta_bstar": 0,
        "meta_mean_motion_dot": 1.54e-06,
        "meta_mean_motion_ddot": 0,
        "tle_line1": "1 38992U 12062B   25354.27025308  .00000154  00000+0  00000+0 0  9996",
        "tle_line2": "2 38992   0.0691 339.5799 0003271 293.0358 295.3874  1.00268974 48037"
      },
      "geometry": {
        "type": "Point",
        "coordinates": [
          3.058955260103379,
          0.031909249736668505
        ]
      }
    },
    {
      "type": "Feature",
      "properties": {
        "norad_id": 39020,
        "name": "EUTELSAT 70B",
        "group": "eutelsat",
        "lat": 0.06707570897322868,
        "lon": 51.928762744211795,
        "alt_km": 35802.96406087746,
        "timestamp": "2025-12-20T16:47:35.962480+00:00",
        "meta_object_name": "EUTELSAT 70B",
        "meta_object_id": "2012-069A",
        "meta_epoch": "2025-12-20T10:08:33.853056",
        "meta_mean_motion": 1.00271448,
        "meta_eccentricity": 0.0004278,
        "meta_inclination": 0.0611,
        "meta_ra_of_asc_node": 4.4052,
        "meta_arg_of_pericenter": 249.3887,
        "meta_mean_anomaly": 58.0942,
        "meta_ephemeris_type": 0,
        "meta_classification_type": "U",
        "meta_norad_cat_id": 39020,
        "meta_element_set_no": 999,
        "meta_rev_at_epoch": 4771,
        "meta_bstar": 0,
        "meta_mean_motion_dot": -2e-07,
        "meta_mean_motion_ddot": 0,
        "tle_line1": "1 39020U 12069A   25354.42261404 -.00000020  00000+0  00000+0 0  9995",
        "tle_line2": "2 39020   0.0611   4.4052 0004278 249.3887  58.0942  1.00271448 47715"
      },
      "geometry": {
        "type": "Point",
        "coordinates": [
          51.928762744211795,
          0.06707570897322868
        ]
      }
    },
    {
      "type": "Feature",
      "properties": {
        "norad_id": 39122,
        "name": "EUTELSAT 117 WEST A",
        "group": "eutelsat",
        "lat": -0.045407280221408684,
        "lon": -135.38182510886554,
        "alt_km": 35777.618107665454,
        "timestamp": "2025-12-20T16:47:35.962493+00:00",
        "meta_object_name": "EUTELSAT 117 WEST A",
        "meta_object_id": "2013-012A",
        "meta_epoch": "2025-12-20T10:15:38.712096",
        "meta_mean_motion": 1.00274588,
        "meta_eccentricity": 0.0002823,
        "meta_inclination": 0.0305,
        "meta_ra_of_asc_node": 302.0312,
        "meta_arg_of_pericenter": 332.7573,
        "meta_mean_anomaly": 211.6045,
        "meta_ephemeris_type": 0,
        "meta_classification_type": "U",
        "meta_norad_cat_id": 39122,
        "meta_element_set_no": 999,
        "meta_rev_at_epoch": 4664,
        "meta_bstar": 0,
        "meta_mean_motion_dot": 1e-07,
        "meta_mean_motion_ddot": 0,
        "tle_line1": "1 39122U 13012A   25354.42753139  .00000010  00000+0  00000+0 0  9996",
        "tle_line2": "2 39122   0.0305 302.0312 0002823 332.7573 211.6045  1.00274588 46647"
      },
      "geometry": {
        "type": "Point",
        "coordinates": [
          -135.38182510886554,
          -0.045407280221408684
        ]
      }
    },
    {
      "type": "Feature",
      "properties": {
        "norad_id": 39163,
        "name": "EUTELSAT 7B",
        "group": "eutelsat",
        "lat": -0.016259017450637996,
        "lon": -11.56046962844624,
        "alt_km": 35769.802888511935,
        "timestamp": "2025-12-20T16:47:35.962506+00:00",
        "meta_object_name": "EUTELSAT 7B",
        "meta_object_id": "2013-022A",
        "meta_epoch": "2025-12-20T06:24:55.272096",
        "meta_mean_motion": 1.00270737,
        "meta_eccentricity": 0.0004381,
        "meta_inclination": 0.0652,
        "meta_ra_of_asc_node": 359.0101,
        "meta_arg_of_pericenter": 323.4978,
        "meta_mean_anomaly": 229.8249,
        "meta_ephemeris_type": 0,
        "meta_classification_type": "U",
        "meta_norad_cat_id": 39163,
        "meta_element_set_no": 999,
        "meta_rev_at_epoch": 4615,
        "meta_bstar": 0,
        "meta_mean_motion_dot": 7.2e-07,
        "meta_mean_motion_ddot": 0,
        "tle_line1": "1 39163U 13022A   25354.26730639  .00000072  00000+0  00000+0 0  9992",
        "tle_line2": "2 39163   0.0652 359.0101 0004381 323.4978 229.8249  1.00270737 46157"
      },
      "geometry": {
        "type": "Point",
        "coordinates": [
          -11.56046962844624,
          -0.016259017450637996
        ]
      }
    },
    {
      "type": "Feature",
      "properties": {
        "norad_id": 39612,
        "name": "EXPRESS-AT1",
        "group": "eutelsat",
        "lat": 0.029452448752379838,
        "lon": 37.39711260589075,
        "alt_km": 35785.09381135528,
        "timestamp": "2025-12-20T16:47:35.962518+00:00",
        "meta_object_name": "EXPRESS-AT1",
        "meta_object_id": "2014-010A",
        "meta_epoch": "2025-12-19T13:31:46.041312",
        "meta_mean_motion": 1.00270605,
        "meta_eccentricity": 4.94e-05,
        "meta_inclination": 0.022,
        "meta_ra_of_asc_node": 3.3546,
        "meta_arg_of_pericenter": 88.7338,
        "meta_mean_anomaly": 255.2488,
        "meta_ephemeris_type": 0,
        "meta_classification_type": "U",
        "meta_norad_cat_id": 39612,
        "meta_element_set_no": 999,
        "meta_rev_at_epoch": 4301,
        "meta_bstar": 0,
        "meta_mean_motion_dot": 0,
        "meta_mean_motion_ddot": 0,
        "tle_line1": "1 39612U 14010A   25353.56372733  .00000000  00000+0  00000+0 0  9999",
        "tle_line2": "2 39612   0.0220   3.3546 0000494  88.7338 255.2488  1.00270605 43015"
      },
      "geometry": {
        "type": "Point",
        "coordinates": [
          37.39711260589075,
          0.029452448752379838
        ]
      }
    },
    {
      "type": "Feature",
      "properties": {
        "norad_id": 39613,
        "name": "EXPRESS-AT2",
        "group": "eutelsat",
        "lat": 0.024886164719103463,
        "lon": 121.27391511669745,
        "alt_km": 35790.511423094926,
        "timestamp": "2025-12-20T16:47:35.962530+00:00",
        "meta_object_name": "EXPRESS-AT2",
        "meta_object_id": "2014-010B",
        "meta_epoch": "2025-12-20T13:45:38.596032",
        "meta_mean_motion": 1.0027128,
        "meta_eccentricity": 0.0001028,
        "meta_inclination": 0.0178,
        "meta_ra_of_asc_node": 326.0157,
        "meta_arg_of_pericenter": 324.6973,
        "meta_mean_anomaly": 144.9593,
        "meta_ephemeris_type": 0,
        "meta_classification_type": "U",
        "meta_norad_cat_id": 39613,
        "meta_element_set_no": 999,
        "meta_rev_at_epoch": 4270,
        "meta_bstar": 0,
        "meta_mean_motion_dot": -2.58e-06,
        "meta_mean_motion_ddot": 0,
        "tle_line1": "1 39613U 14010B   25354.57336338 -.00000258  00000+0  00000+0 0  9999",
        "tle_line2": "2 39613   0.0178 326.0157 0001028 324.6973 144.9593  1.00271280 42708"
      },
      "geometry": {
        "type": "Point",
        "coordinates": [
          121.27391511669745,
          0.024886164719103463
        ]
      }
    }
  ]
}